NORAD_CAT_ID,OBJECT_NAME,OBJECT_TYPE,EPOCH,MEAN_MOTION,ECCENTRICITY,INCLINATION,RA_OF_ASC_NODE,ARG_OF_PERICENTER,MEAN_ANOMALY,BSTAR,MEAN_MOTION_DOT,MEAN_MOTION_DDOT,TLE_LINE0,TLE_LINE1,TLE_LINE2,SEMIMAJOR_AXIS,PERIOD,APOGEE,PERIGEE,DECAYED
56800.0,STARLINK-6036,PAYLOAD,2024-04-13 19:35:25,14.98329672,0.0003073,69.998,296.5274,268.6471,91.4336,-0.0001752,-2.183e-05,0.0,0 STARLINK-6036,1 56800U 23078AK  24104.81627112 -.00002183  00000-0 -17520-3 0  9992,2 56800  69.9980 296.5274 0003073 268.6471  91.4336 14.98329672 48856,6950.194,96.107,574.195,569.923,0.0
56800.0,STARLINK-6036,PAYLOAD,2024-04-13 21:11:33,14.98332466,0.0003102,69.9979,296.3589,269.8156,90.2647,-0.0001674,-2.09e-05,0.0,0 STARLINK-6036,1 56800U 23078AK  24104.88302924 -.00002090  00000-0 -16740-3 0  9990,2 56800  69.9979 296.3589 0003102 269.8156  90.2647 14.98332466 48607,6950.185,96.107,574.206,569.894,0.0
56800.0,STARLINK-6036,PAYLOAD,2024-04-14 19:37:25,14.98333284,0.0002999,69.9982,294.0027,263.0605,97.0212,0.0001886,2.158e-05,0.0,0 STARLINK-6036,1 56800U 23078AK  24105.81766132  .00002158  00000-0  18860-3 0  9997,2 56800  69.9982 294.0027 0002999 263.0605  97.0212 14.98333284 49008,6950.183,96.107,574.132,569.963,0.0
56800.0,STARLINK-6036,PAYLOAD,2024-04-14 21:13:33,14.98336539,0.0003103,69.998,293.834,264.2829,95.7976,0.0002113,2.429e-05,0.0,0 STARLINK-6036,1 56800U 23078AK  24105.88441833  .00002429  00000-0  21130-3 0  9997,2 56800  69.9980 293.8340 0003103 264.2829  95.7976 14.98336539 48759,6950.173,96.107,574.194,569.881,0.0
56800.0,STARLINK-6036,PAYLOAD,2024-04-15 13:14:54,14.98330579,0.0002457,70.0,292.153,249.5343,110.5552,0.00014442,1.631e-05,0.0,0 STARLINK-6036,1 56800U 23078AK  24106.55202381  .00001631  00000-0  14442-3 0  9997,2 56800  70.0000 292.1530 0002457 249.5343 110.5552 14.98330579 48851,6950.191,96.107,573.764,570.348,0.0
56800.0,STARLINK-6036,PAYLOAD,2024-04-15 21:15:35,14.9833094,0.0002481,69.9998,291.3112,251.908,108.1809,0.0001308,1.468e-05,0.0,0 STARLINK-6036,1 56800U 23078AK  24106.88582376  .00001468  00000-0  13080-3 0  9993,2 56800  69.9998 291.3112 0002481 251.9080 108.1809 14.98330940 48909,6950.19,96.107,573.779,570.331,0.0
56800.0,STARLINK-6036,PAYLOAD,2024-04-15 22:51:43,14.98331059,0.0002467,69.9998,291.1426,255.0683,105.0203,0.00012844,1.44e-05,0.0,0 STARLINK-6036,1 56800U 23078AK  24106.95258383  .00001440  00000-0  12844-3 0  9996,2 56800  69.9998 291.1426 0002467 255.0683 105.0203 14.98331059 49179,6950.19,96.107,573.769,570.34,0.0
56800.0,STARLINK-6036,PAYLOAD,2024-04-16 13:16:56,14.98317766,0.0002539,70.0001,289.6259,261.2246,98.8626,0.0001212,1.353e-05,0.0,0 STARLINK-6036,1 56800U 23078AK  24107.55343031  .00001353  00000-0  12120-3 0  9998,2 56800  70.0001 289.6259 0002539 261.2246  98.8626 14.98317766 49264,6950.231,96.108,573.86,570.331,0.0
56800.0,STARLINK-6036,PAYLOAD,2024-04-16 14:53:04,14.98317599,0.0002694,69.9995,289.4579,264.8915,95.1936,9.7102e-05,1.065e-05,0.0,0 STARLINK-6036,1 56800U 23078AK  24107.62019155  .00001065  00000-0  97102-4 0  9997,2 56800  69.9995 289.4579 0002694 264.8915  95.1936 14.98317599 49011,6950.231,96.108,573.969,570.224,0.0
56800.0,STARLINK-6036,PAYLOAD,2024-04-16 21:17:36,14.98322736,0.0002786,69.9986,288.7845,269.5898,90.4942,8.8406e-05,9.62e-06,0.0,0 STARLINK-6036,1 56800U 23078AK  24107.88722995  .00000962  00000-0  88406-4 0  9990,2 56800  69.9986 288.7845 0002786 269.5898  90.4942 14.98322736 49051,6950.215,96.107,574.017,570.144,0.0
56800.0,STARLINK-6036,PAYLOAD,2024-04-17 13:18:57,14.98331122,0.0002585,69.9988,287.1024,262.7275,97.359,-9.8317e-05,-1.266e-05,0.0,0 STARLINK-6036,1 56800U 23078AK  24108.55482880 -.00001266  00000-0 -98317-4 0  9993,2 56800  69.9988 287.1024 0002585 262.7275  97.3590 14.98331122 49410,6950.189,96.107,573.851,570.258,0.0
56800.0,STARLINK-6036,PAYLOAD,2024-04-17 14:55:05,14.98330907,0.000259,69.9988,286.9341,262.7066,97.3798,-9.7835e-05,-1.26e-05,0.0,0 STARLINK-6036,1 56800U 23078AK  24108.62158884 -.00001260  00000-0 -97835-4 0  9993,2 56800  69.9988 286.9341 0002590 262.7066  97.3798 14.98330907 49165,6950.19,96.107,573.855,570.255,0.0
56800.0,STARLINK-6036,PAYLOAD,2024-04-17 21:19:37,14.98327881,0.0002572,69.999,286.2609,261.8077,98.279,-9.162e-05,-1.186e-05,0.0,0 STARLINK-6036,1 56800U 23078AK  24108.88863074 -.00001186  00000-0 -91620-4 0  9998,2 56800  69.9990 286.2609 0002572 261.8077  98.2790 14.98327881 49204,6950.199,96.107,573.852,570.277,0.0
56800.0,STARLINK-6036,PAYLOAD,2024-04-18 13:20:58,14.98323297,0.0002685,69.9986,284.5764,264.1561,95.9292,1.5432e-05,9.1e-07,0.0,0 STARLINK-6036,1 56800U 23078AK  24109.55623207  .00000091  00000-0  15432-4 0  9994,2 56800  69.9986 284.5764 0002685 264.1561  95.9292 14.98323297 49300,6950.214,96.107,573.945,570.212,0.0
56800.0,STARLINK-6036,PAYLOAD,2024-04-18 19:45:30,14.98324212,0.0002678,69.999,283.9028,258.6501,101.4357,-1.1475e-06,-1.07e-06,0.0,0 STARLINK-6036,1 56800U 23078AK  24109.82327276 -.00000107  00000-0 -11475-5 0  9995,2 56800  69.9990 283.9028 0002678 258.6501 101.4357 14.98324212 49601,6950.211,96.107,573.937,570.215,0.0
56800.0,STARLINK-6036,PAYLOAD,2024-04-18 21:21:38,14.98325445,0.0002668,69.9991,283.7348,258.0065,102.0795,1.2033e-05,5.1e-07,0.0,0 STARLINK-6036,1 56800U 23078AK  24109.89003183  .00000051  00000-0  12033-4 0  9996,2 56800  69.9991 283.7348 0002668 258.0065 102.0795 14.98325445 49357,6950.207,96.107,573.926,570.218,0.0
56800.0,STARLINK-6036,PAYLOAD,2024-04-19 11:46:50,14.9833129,0.0002798,69.999,282.2194,263.194,96.89,8.5617e-05,9.29e-06,0.0,0 STARLINK-6036,1 56800U 23078AK  24110.49086677  .00000929  00000-0  85617-4 0  9995,2 56800  69.9990 282.2194 0002798 263.1940  96.8900 14.98331290 49704,6950.189,96.107,573.999,570.109,0.0
56800.0,STARLINK-6036,PAYLOAD,2024-04-19 14:59:06,14.98331646,0.0002799,69.999,281.8828,263.2589,96.8252,8.6818e-05,9.43e-06,0.0,0 STARLINK-6036,1 56800U 23078AK  24110.62438641  .00000943  00000-0  86818-4 0  9992,2 56800  69.9990 281.8828 0002799 263.2589  96.8252 14.98331646 49462,6950.188,96.107,573.998,570.107,0.0
56800.0,STARLINK-6036,PAYLOAD,2024-04-19 19:47:30,14.98337612,0.0002675,69.9992,281.3784,259.8102,100.2755,0.0001567,1.778e-05,0.0,0 STARLINK-6036,1 56800U 23078AK  24110.82466009  .00001778  00000-0  15670-3 0  9997,2 56800  69.9992 281.3784 0002675 259.8102 100.2755 14.98337612 49754,6950.169,96.107,573.894,570.175,0.0
56800.0,STARLINK-6036,PAYLOAD,2024-04-19 21:23:38,14.9833855,0.0002668,69.9993,281.2103,259.4086,100.6773,0.00016437,1.869e-05,0.0,0 STARLINK-6036,1 56800U 23078AK  24110.89141898  .00001869  00000-0  16437-3 0  9993,2 56800  69.9993 281.2103 0002668 259.4086 100.6773 14.98338550 49507,6950.166,96.106,573.886,570.177,0.0
56800.0,STARLINK-6036,PAYLOAD,2024-04-20 13:24:59,14.9833471,0.0002595,69.9997,279.5265,254.8543,105.2329,9.3391e-05,1.022e-05,0.0,0 STARLINK-6036,1 56800U 23078AK  24111.55902052  .00001022  00000-0  93391-4 0  9990,2 56800  69.9997 279.5265 0002595 254.8543 105.2329 14.98334710 49609,6950.178,96.107,573.847,570.24,0.0
56800.0,STARLINK-6036,PAYLOAD,2024-04-20 19:49:31,14.98335633,0.0002463,70.0002,278.8537,256.7692,103.3193,9.9801e-05,1.098e-05,0.0,0 STARLINK-6036,1 56800U 23078AK  24111.82605902  .00001098  00000-0  99801-4 0  9999,2 56800  70.0002 278.8537 0002463 256.7692 103.3193 14.98335633 49909,6950.175,96.107,573.752,570.329,0.0
56800.0,STARLINK-6036,PAYLOAD,2024-04-20 21:25:39,14.98337947,0.0002574,70.0003,278.687,263.665,96.4216,6.3993e-05,6.71e-06,0.0,0 STARLINK-6036,1 56800U 23078AK  24111.89281837  .00000671  00000-0  63993-4 0  9992,2 56800  70.0003 278.6870 0002574 263.6650  96.4216 14.98337947 49652,6950.168,96.106,573.822,570.244,0.0
56800.0,STARLINK-6036,PAYLOAD,2024-04-21 13:27:00,14.98329527,0.0001997,70.0017,277.0038,247.6765,112.4183,-4.2181e-05,-5.96e-06,0.0,0 STARLINK-6036,1 56800U 23078AK  24112.56042554 -.00000596  00000-0 -42181-4 0  9992,2 56800  70.0017 277.0038 0001997 247.6765 112.4183 14.98329527 49751,6950.194,96.107,573.447,570.671,0.0
56800.0,STARLINK-6036,PAYLOAD,2024-04-21 19:51:33,14.98325774,0.0002301,70.001,276.3292,254.7874,105.3031,-8.1478e-05,-1.065e-05,0.0,0 STARLINK-6036,1 56800U 23078AK  24112.82746858 -.00001065  00000-0 -81478-4 0  9993,2 56800  70.0010 276.3292 0002301 254.7874 105.3031 14.98325774 50056,6950.206,96.107,573.67,570.472,0.0
56800.0,STARLINK-6036,PAYLOAD,2024-04-22 10:16:45,14.98320547,0.000244,70.0013,274.817,249.8657,110.224,7.2132e-05,7.68e-06,0.0,0 STARLINK-6036,1 56800U 23078AK  24113.42830513  .00000768  00000-0  72132-4 0  9996,2 56800  70.0013 274.8170 0002440 249.8657 110.2240 14.98320547 49884,6950.222,96.108,573.783,570.391,0.0
56800.0,STARLINK-6036,PAYLOAD,2024-04-22 19:53:33,14.98335484,0.0002459,70.0007,273.8042,257.9973,102.0911,-0.00022042,-2.722e-05,0.0,0 STARLINK-6036,1 56800U 23078AK  24113.82886542 -.00002722  00000-0 -22042-3 0  9991,2 56800  70.0007 273.8042 0002459 257.9973 102.0911 14.98335484 50203,6950.176,96.107,573.75,570.332,0.0
56800.0,STARLINK-6036,PAYLOAD,2024-04-23 11:54:54,14.98321743,0.0002514,70.0005,272.1199,255.03,105.0581,5.6896e-05,5.86e-06,0.0,0 STARLINK-6036,1 56800U 23078AK  24114.49646831  .00000586  00000-0  56896-4 0  9999,2 56800  70.0005 272.1199 0002514 255.0300 105.0581 14.98321743 50301,6950.218,96.108,573.831,570.336,0.0
56800.0,STARLINK-6036,PAYLOAD,2024-04-23 13:31:03,14.98321403,0.0002636,70.0005,271.952,259.5879,100.4983,4.6914e-05,4.67e-06,0.0,0 STARLINK-6036,1 56800U 23078AK  24114.56322933  .00000467  00000-0  46914-4 0  9999,2 56800  70.0005 271.9520 0002636 259.5879 100.4983 14.98321403 50051,6950.219,96.108,573.917,570.252,0.0
56800.0,STARLINK-6036,PAYLOAD,2024-04-23 19:55:35,14.9832732,0.0002248,70.0009,271.2791,267.9703,92.1198,0.00012166,1.359e-05,0.0,0 STARLINK-6036,1 56800U 23078AK  24114.83026640  .00001359  00000-0  12166-3 0  9997,2 56800  70.0009 271.2791 0002248 267.9703  92.1198 14.98327320 50099,6950.201,96.107,573.629,570.504,0.0
